<?xml version="1.0" encoding="UTF-8"?>
<ndm xmlns:xsi="http://www.w3.org/2001/XMLSchema-instance" xsi:noNamespaceSchemaLocation="https://sanaregistry.org/r/ndmxml_unqualified/ndmxml-2.0.0-master-2.0.xsd">
<omm id="CCSDS_OMM_VERS" version="2.0">
<header><CREATION_DATE/><ORIGINATOR/></header><body><segment><metadata><OBJECT_NAME>KUIPER-00167</OBJECT_NAME><OBJECT_ID>2025-217U</OBJECT_ID><CENTER_NAME>EARTH</CENTER_NAME><REF_FRAME>TEME</REF_FRAME><TIME_SYSTEM>UTC</TIME_SYSTEM><MEAN_ELEMENT_THEORY>SGP4</MEAN_ELEMENT_THEORY></metadata><data><meanElements><EPOCH>2025-10-09T22:00:00.999072</EPOCH><MEAN_MOTION>15.35341623</MEAN_MOTION><ECCENTRICITY>.0006258</ECCENTRICITY><INCLINATION>51.8699</INCLINATION><RA_OF_ASC_NODE>12.9636</RA_OF_ASC_NODE><ARG_OF_PERICENTER>148.5842</ARG_OF_PERICENTER><MEAN_ANOMALY>349.0906</MEAN_ANOMALY></meanElements><tleParameters><EPHEMERIS_TYPE>0</EPHEMERIS_TYPE><CLASSIFICATION_TYPE>U</CLASSIFICATION_TYPE><NORAD_CAT_ID>65780</NORAD_CAT_ID><ELEMENT_SET_NO>999</ELEMENT_SET_NO><REV_AT_EPOCH>315</REV_AT_EPOCH><BSTAR>-.24767E-3</BSTAR><MEAN_MOTION_DOT>-.9012E-4</MEAN_MOTION_DOT><MEAN_MOTION_DDOT>0</MEAN_MOTION_DDOT></tleParameters></data></segment></body></omm>
<omm id="CCSDS_OMM_VERS" version="2.0">
<header><CREATION_DATE/><ORIGINATOR/></header><body><segment><metadata><OBJECT_NAME>KUIPER-00168</OBJECT_NAME><OBJECT_ID>2025-217V</OBJECT_ID><CENTER_NAME>EARTH</CENTER_NAME><REF_FRAME>TEME</REF_FRAME><TIME_SYSTEM>UTC</TIME_SYSTEM><MEAN_ELEMENT_THEORY>SGP4</MEAN_ELEMENT_THEORY></metadata><data><meanElements><EPOCH>2025-10-09T22:00:00.999072</EPOCH><MEAN_MOTION>15.37064513</MEAN_MOTION><ECCENTRICITY>.0001736</ECCENTRICITY><INCLINATION>51.8741</INCLINATION><RA_OF_ASC_NODE>12.7700</RA_OF_ASC_NODE><ARG_OF_PERICENTER>43.4027</ARG_OF_PERICENTER><MEAN_ANOMALY>187.0707</MEAN_ANOMALY></meanElements><tleParameters><EPHEMERIS_TYPE>0</EPHEMERIS_TYPE><CLASSIFICATION_TYPE>U</CLASSIFICATION_TYPE><NORAD_CAT_ID>65781</NORAD_CAT_ID><ELEMENT_SET_NO>999</ELEMENT_SET_NO><REV_AT_EPOCH>130</REV_AT_EPOCH><BSTAR>-.20606E-3</BSTAR><MEAN_MOTION_DOT>-.7972E-4</MEAN_MOTION_DOT><MEAN_MOTION_DDOT>0</MEAN_MOTION_DDOT></tleParameters></data></segment></body></omm>
<omm id="CCSDS_OMM_VERS" version="2.0">
<header><CREATION_DATE/><ORIGINATOR/></header><body><segment><metadata><OBJECT_NAME>KUIPER-00169</OBJECT_NAME><OBJECT_ID>2025-217W</OBJECT_ID><CENTER_NAME>EARTH</CENTER_NAME><REF_FRAME>TEME</REF_FRAME><TIME_SYSTEM>UTC</TIME_SYSTEM><MEAN_ELEMENT_THEORY>SGP4</MEAN_ELEMENT_THEORY></metadata><data><meanElements><EPOCH>2025-10-09T22:00:00.999072</EPOCH><MEAN_MOTION>15.36325327</MEAN_MOTION><ECCENTRICITY>.0003261</ECCENTRICITY><INCLINATION>51.8734</INCLINATION><RA_OF_ASC_NODE>12.8558</RA_OF_ASC_NODE><ARG_OF_PERICENTER>113.8186</ARG_OF_PERICENTER><MEAN_ANOMALY>75.2047</MEAN_ANOMALY></meanElements><tleParameters><EPHEMERIS_TYPE>0</EPHEMERIS_TYPE><CLASSIFICATION_TYPE>U</CLASSIFICATION_TYPE><NORAD_CAT_ID>65782</NORAD_CAT_ID><ELEMENT_SET_NO>999</ELEMENT_SET_NO><REV_AT_EPOCH>280</REV_AT_EPOCH><BSTAR>-.24087E-3</BSTAR><MEAN_MOTION_DOT>-.9042E-4</MEAN_MOTION_DOT><MEAN_MOTION_DDOT>0</MEAN_MOTION_DDOT></tleParameters></data></segment></body></omm>
<omm id="CCSDS_OMM_VERS" version="2.0">
<header><CREATION_DATE/><ORIGINATOR/></header><body><segment><metadata><OBJECT_NAME>KUIPER-00170</OBJECT_NAME><OBJECT_ID>2025-217X</OBJECT_ID><CENTER_NAME>EARTH</CENTER_NAME><REF_FRAME>TEME</REF_FRAME><TIME_SYSTEM>UTC</TIME_SYSTEM><MEAN_ELEMENT_THEORY>SGP4</MEAN_ELEMENT_THEORY></metadata><data><meanElements><EPOCH>2025-10-09T22:00:00.999072</EPOCH><MEAN_MOTION>15.35433375</MEAN_MOTION><ECCENTRICITY>.0006577</ECCENTRICITY><INCLINATION>51.8687</INCLINATION><RA_OF_ASC_NODE>12.9527</RA_OF_ASC_NODE><ARG_OF_PERICENTER>142.6499</ARG_OF_PERICENTER><MEAN_ANOMALY>0.2532</MEAN_ANOMALY></meanElements><tleParameters><EPHEMERIS_TYPE>0</EPHEMERIS_TYPE><CLASSIFICATION_TYPE>U</CLASSIFICATION_TYPE><NORAD_CAT_ID>65783</NORAD_CAT_ID><ELEMENT_SET_NO>999</ELEMENT_SET_NO><REV_AT_EPOCH>130</REV_AT_EPOCH><BSTAR>-.17323E-3</BSTAR><MEAN_MOTION_DOT>-.644E-4</MEAN_MOTION_DOT><MEAN_MOTION_DDOT>0</MEAN_MOTION_DDOT></tleParameters></data></segment></body></omm>
<omm id="CCSDS_OMM_VERS" version="2.0">
<header><CREATION_DATE/><ORIGINATOR/></header><body><segment><metadata><OBJECT_NAME>KUIPER-00171</OBJECT_NAME><OBJECT_ID>2025-217Y</OBJECT_ID><CENTER_NAME>EARTH</CENTER_NAME><REF_FRAME>TEME</REF_FRAME><TIME_SYSTEM>UTC</TIME_SYSTEM><MEAN_ELEMENT_THEORY>SGP4</MEAN_ELEMENT_THEORY></metadata><data><meanElements><EPOCH>2025-10-09T22:00:00.999072</EPOCH><MEAN_MOTION>15.35995643</MEAN_MOTION><ECCENTRICITY>.000466</ECCENTRICITY><INCLINATION>51.8692</INCLINATION><RA_OF_ASC_NODE>12.9003</RA_OF_ASC_NODE><ARG_OF_PERICENTER>133.5325</ARG_OF_PERICENTER><MEAN_ANOMALY>35.3110</MEAN_ANOMALY></meanElements><tleParameters><EPHEMERIS_TYPE>0</EPHEMERIS_TYPE><CLASSIFICATION_TYPE>U</CLASSIFICATION_TYPE><NORAD_CAT_ID>65784</NORAD_CAT_ID><ELEMENT_SET_NO>999</ELEMENT_SET_NO><REV_AT_EPOCH>235</REV_AT_EPOCH><BSTAR>-.234E-3</BSTAR><MEAN_MOTION_DOT>-.8708E-4</MEAN_MOTION_DOT><MEAN_MOTION_DDOT>0</MEAN_MOTION_DDOT></tleParameters></data></segment></body></omm>
<omm id="CCSDS_OMM_VERS" version="2.0">
<header><CREATION_DATE/><ORIGINATOR/></header><body><segment><metadata><OBJECT_NAME>KUIPER-00172</OBJECT_NAME><OBJECT_ID>2025-217Z</OBJECT_ID><CENTER_NAME>EARTH</CENTER_NAME><REF_FRAME>TEME</REF_FRAME><TIME_SYSTEM>UTC</TIME_SYSTEM><MEAN_ELEMENT_THEORY>SGP4</MEAN_ELEMENT_THEORY></metadata><data><meanElements><EPOCH>2025-10-09T22:00:00.999072</EPOCH><MEAN_MOTION>15.36726938</MEAN_MOTION><ECCENTRICITY>.0002551</ECCENTRICITY><INCLINATION>51.8738</INCLINATION><RA_OF_ASC_NODE>12.8111</RA_OF_ASC_NODE><ARG_OF_PERICENTER>88.6798</ARG_OF_PERICENTER><MEAN_ANOMALY>121.9760</MEAN_ANOMALY></meanElements><tleParameters><EPHEMERIS_TYPE>0</EPHEMERIS_TYPE><CLASSIFICATION_TYPE>U</CLASSIFICATION_TYPE><NORAD_CAT_ID>65785</NORAD_CAT_ID><ELEMENT_SET_NO>999</ELEMENT_SET_NO><REV_AT_EPOCH>250</REV_AT_EPOCH><BSTAR>-.26323E-3</BSTAR><MEAN_MOTION_DOT>-.9968E-4</MEAN_MOTION_DOT><MEAN_MOTION_DDOT>0</MEAN_MOTION_DDOT></tleParameters></data></segment></body></omm>
<omm id="CCSDS_OMM_VERS" version="2.0">
<header><CREATION_DATE/><ORIGINATOR/></header><body><segment><metadata><OBJECT_NAME>KUIPER-00173</OBJECT_NAME><OBJECT_ID>2025-217AA</OBJECT_ID><CENTER_NAME>EARTH</CENTER_NAME><REF_FRAME>TEME</REF_FRAME><TIME_SYSTEM>UTC</TIME_SYSTEM><MEAN_ELEMENT_THEORY>SGP4</MEAN_ELEMENT_THEORY></metadata><data><meanElements><EPOCH>2025-10-09T22:00:00.999072</EPOCH><MEAN_MOTION>15.36519142</MEAN_MOTION><ECCENTRICITY>.0002822</ECCENTRICITY><INCLINATION>51.8724</INCLINATION><RA_OF_ASC_NODE>12.8382</RA_OF_ASC_NODE><ARG_OF_PERICENTER>103.1184</ARG_OF_PERICENTER><MEAN_ANOMALY>95.7176</MEAN_ANOMALY></meanElements><tleParameters><EPHEMERIS_TYPE>0</EPHEMERIS_TYPE><CLASSIFICATION_TYPE>U</CLASSIFICATION_TYPE><NORAD_CAT_ID>65786</NORAD_CAT_ID><ELEMENT_SET_NO>999</ELEMENT_SET_NO><REV_AT_EPOCH>264</REV_AT_EPOCH><BSTAR>-.28622E-3</BSTAR><MEAN_MOTION_DOT>-.10734E-3</MEAN_MOTION_DOT><MEAN_MOTION_DDOT>0</MEAN_MOTION_DDOT></tleParameters></data></segment></body></omm>
<omm id="CCSDS_OMM_VERS" version="2.0">
<header><CREATION_DATE/><ORIGINATOR/></header><body><segment><metadata><OBJECT_NAME>KUIPER-00174</OBJECT_NAME><OBJECT_ID>2025-217AB</OBJECT_ID><CENTER_NAME>EARTH</CENTER_NAME><REF_FRAME>TEME</REF_FRAME><TIME_SYSTEM>UTC</TIME_SYSTEM><MEAN_ELEMENT_THEORY>SGP4</MEAN_ELEMENT_THEORY></metadata><data><meanElements><EPOCH>2025-10-09T22:00:00.999072</EPOCH><MEAN_MOTION>15.37031650</MEAN_MOTION><ECCENTRICITY>.0002376</ECCENTRICITY><INCLINATION>51.8740</INCLINATION><RA_OF_ASC_NODE>12.7774</RA_OF_ASC_NODE><ARG_OF_PERICENTER>50.6584</ARG_OF_PERICENTER><MEAN_ANOMALY>175.2057</MEAN_ANOMALY></meanElements><tleParameters><EPHEMERIS_TYPE>0</EPHEMERIS_TYPE><CLASSIFICATION_TYPE>U</CLASSIFICATION_TYPE><NORAD_CAT_ID>65787</NORAD_CAT_ID><ELEMENT_SET_NO>999</ELEMENT_SET_NO><REV_AT_EPOCH>295</REV_AT_EPOCH><BSTAR>-.27223E-3</BSTAR><MEAN_MOTION_DOT>-.10394E-3</MEAN_MOTION_DOT><MEAN_MOTION_DDOT>0</MEAN_MOTION_DDOT></tleParameters></data></segment></body></omm>

</ndm>
