KUIPER-00167            
1 65780U 25217U   25282.91667823 -.00009012  00000+0 -24767-3 0  9996
2 65780  51.8699  12.9636 0006258 148.5842 349.0906 15.35341623  3159
KUIPER-00168            
1 65781U 25217V   25282.91667823 -.00007972  00000+0 -20606-3 0  9998
2 65781  51.8741  12.7700 0001736  43.4027 187.0707 15.37064513  1308
KUIPER-00169            
1 65782U 25217W   25282.91667823 -.00009042  00000+0 -24087-3 0  9996
2 65782  51.8734  12.8558 0003261 113.8186  75.2047 15.36325327  2809
KUIPER-00170            
1 65783U 25217X   25282.91667823 -.00006440  00000+0 -17323-3 0  9991
2 65783  51.8687  12.9527 0006577 142.6499   0.2532 15.35433375  1307
KUIPER-00171            
1 65784U 25217Y   25282.91667823 -.00008708  00000+0 -23400-3 0  9994
2 65784  51.8692  12.9003 0004660 133.5325  35.3110 15.35995643  2359
KUIPER-00172            
1 65785U 25217Z   25282.91667823 -.00009968  00000+0 -26323-3 0  9991
2 65785  51.8738  12.8111 0002551  88.6798 121.9760 15.36726938  2501
KUIPER-00173            
1 65786U 25217AA  25282.91667823 -.00010734  00000+0 -28622-3 0  9999
2 65786  51.8724  12.8382 0002822 103.1184  95.7176 15.36519142  2641
KUIPER-00174            
1 65787U 25217AB  25282.91667823 -.00010394  00000+0 -27223-3 0  9998
2 65787  51.8740  12.7774 0002376  50.6584 175.2057 15.37031650  2958
